start=new Date('2022-04-20T00:00:00.000Z').valueOf();
sats=[{"REV_AT_EPOCH":"5258","INCLINATION":"53.0574","GP_ID":"201626723","RCS_SIZE":"LARGE","EPHEMERIS_TYPE":"0","FILE":"3408368","SITE":"AFETR","ECCENTRICITY":"0.00015130","ELEMENT_SET_NO":"999","TLE_LINE2":"2 48599  53.0574  13.4132 0001513  70.0286 290.0866 15.06390374 52587","NORAD_CAT_ID":"48599","MEAN_ELEMENT_THEORY":"SGP4","PERIOD":"95.593","MEAN_MOTION_DOT":"0.00004178","MEAN_MOTION_DDOT":"0.0000000000000","LAUNCH_DATE":"2021-05-15","MEAN_ANOMALY":"290.0866","MEAN_MOTION":"15.06390374","PERIAPSIS":"546.195","CLASSIFICATION_TYPE":"U","COUNTRY_CODE":"US","SEMIMAJOR_AXIS":"6925.378","DECAY_DATE":null,"APOAPSIS":"548.291","TIME_SYSTEM":"UTC","OBJECT_ID":"2021-041AY","CENTER_NAME":"EARTH","BSTAR":"0.00029927000000","EPOCH":"2022-04-19T04:56:11.117472","ARG_OF_PERICENTER":"70.0286","REF_FRAME":"TEME","OBJECT_NAME":"STARLINK-2274","RA_OF_ASC_NODE":"13.4132","TLE_LINE1":"1 48599U 21041AY  22109.20568423  .00004178  00000-0  29927-3 0  9999","OBJECT_TYPE":"PAYLOAD"},{"MEAN_MOTION_DOT":"0.00004019","PERIOD":"95.592","MEAN_ELEMENT_THEORY":"SGP4","LAUNCH_DATE":"2021-05-15","MEAN_MOTION_DDOT":"0.0000000000000","INCLINATION":"53.0559","GP_ID":"201627475","REV_AT_EPOCH":"5237","TLE_LINE2":"2 48600  53.0559  28.2399 0001449  83.7242 276.3912 15.06407113 52379","NORAD_CAT_ID":"48600","ELEMENT_SET_NO":"999","ECCENTRICITY":"0.00014490","FILE":"3408368","EPHEMERIS_TYPE":"0","SITE":"AFETR","RCS_SIZE":"LARGE","EPOCH":"2022-04-19T05:49:55.966368","BSTAR":"0.00028848000000","CENTER_NAME":"EARTH","OBJECT_ID":"2021-041AZ","APOAPSIS":"548.195","TIME_SYSTEM":"UTC","OBJECT_TYPE":"PAYLOAD","TLE_LINE1":"1 48600U 21041AZ  22109.24300887  .00004019  00000-0  28848-3 0  9999","RA_OF_ASC_NODE":"28.2399","OBJECT_NAME":"STARLINK-2275","REF_FRAME":"TEME","ARG_OF_PERICENTER":"83.7242","PERIAPSIS":"546.188","MEAN_MOTION":"15.06407113","MEAN_ANOMALY":"276.3912","DECAY_DATE":null,"SEMIMAJOR_AXIS":"6925.327","COUNTRY_CODE":"US","CLASSIFICATION_TYPE":"U"},{"INCLINATION":"53.0573","GP_ID":"201638860","REV_AT_EPOCH":"5267","TLE_LINE2":"2 48602  53.0573  10.5880 0001544  71.4966 288.6191 15.06400745 52671","NORAD_CAT_ID":"48602","ELEMENT_SET_NO":"999","ECCENTRICITY":"0.00015440","FILE":"3408692","EPHEMERIS_TYPE":"0","SITE":"AFETR","RCS_SIZE":"LARGE","MEAN_MOTION_DOT":"0.00000339","PERIOD":"95.592","MEAN_ELEMENT_THEORY":"SGP4","LAUNCH_DATE":"2021-05-15","MEAN_MOTION_DDOT":"0.0000000000000","PERIAPSIS":"546.142","MEAN_MOTION":"15.06400745","MEAN_ANOMALY":"288.6191","DECAY_DATE":null,"SEMIMAJOR_AXIS":"6925.346","COUNTRY_CODE":"US","CLASSIFICATION_TYPE":"U","EPOCH":"2022-04-19T20:03:48.848256","BSTAR":"0.00004164500000","CENTER_NAME":"EARTH","OBJECT_ID":"2021-041BB","APOAPSIS":"548.281","TIME_SYSTEM":"UTC","TLE_LINE1":"1 48602U 21041BB  22109.83598204  .00000339  00000-0  41645-4 0  9990","OBJECT_TYPE":"PAYLOAD","RA_OF_ASC_NODE":"10.5880","OBJECT_NAME":"STARLINK-2713","REF_FRAME":"TEME","ARG_OF_PERICENTER":"71.4966"},{"REF_FRAME":"TEME","TLE_LINE1":"1 48603U 21041BC  22109.41715067  .00004585  00000-0  32653-3 0  9998","RA_OF_ASC_NODE":"7.4628","OBJECT_TYPE":"PAYLOAD","OBJECT_NAME":"STARLINK-2714","ARG_OF_PERICENTER":"67.1484","EPOCH":"2022-04-19T10:00:41.817888","BSTAR":"0.00032653000000","APOAPSIS":"548.323","TIME_SYSTEM":"UTC","CENTER_NAME":"EARTH","OBJECT_ID":"2021-041BC","SEMIMAJOR_AXIS":"6925.360","COUNTRY_CODE":"US","DECAY_DATE":null,"CLASSIFICATION_TYPE":"U","PERIAPSIS":"546.127","MEAN_ANOMALY":"292.9672","MEAN_MOTION":"15.06396293","LAUNCH_DATE":"2021-05-15","MEAN_MOTION_DDOT":"0.0000000000000","MEAN_MOTION_DOT":"0.00004585","MEAN_ELEMENT_THEORY":"SGP4","PERIOD":"95.592","ECCENTRICITY":"0.00015850","ELEMENT_SET_NO":"999","TLE_LINE2":"2 48603  53.0557   7.4628 0001585  67.1484 292.9672 15.06396293 52686","NORAD_CAT_ID":"48603","RCS_SIZE":"LARGE","FILE":"3408368","SITE":"AFETR","EPHEMERIS_TYPE":"0","GP_ID":"201626974","INCLINATION":"53.0557","REV_AT_EPOCH":"5268"},{"LAUNCH_DATE":"2021-05-15","MEAN_MOTION_DDOT":"0.0000000000000","MEAN_MOTION_DOT":"0.00008751","PERIOD":"95.591","MEAN_ELEMENT_THEORY":"SGP4","ELEMENT_SET_NO":"999","TLE_LINE2":"2 48604  53.0565  37.1730 0002032  58.7727 301.3461 15.06422339 52271","NORAD_CAT_ID":"48604","ECCENTRICITY":"0.00020320","SITE":"AFETR","FILE":"3408368","EPHEMERIS_TYPE":"0","RCS_SIZE":"LARGE","GP_ID":"201627224","INCLINATION":"53.0565","REV_AT_EPOCH":"5227","TLE_LINE1":"1 48604U 21041BD  22109.48536318  .00008751  00000-0  60531-3 0  9991","OBJECT_TYPE":"PAYLOAD","RA_OF_ASC_NODE":"37.1730","OBJECT_NAME":"STARLINK-2757","REF_FRAME":"TEME","ARG_OF_PERICENTER":"58.7727","EPOCH":"2022-04-19T11:38:55.378752","BSTAR":"0.00060531000000","CENTER_NAME":"EARTH","OBJECT_ID":"2021-041BD","APOAPSIS":"548.552","TIME_SYSTEM":"UTC","DECAY_DATE":null,"SEMIMAJOR_AXIS":"6925.280","COUNTRY_CODE":"US","CLASSIFICATION_TYPE":"U","PERIAPSIS":"545.738","MEAN_MOTION":"15.06422339","MEAN_ANOMALY":"301.3461"},{"REV_AT_EPOCH":"4971","INCLINATION":"53.0565","GP_ID":"201627730","FILE":"3408368","SITE":"AFETR","EPHEMERIS_TYPE":"0","RCS_SIZE":"LARGE","NORAD_CAT_ID":"48638","TLE_LINE2":"2 48638  53.0565  12.3912 0001611  74.1878 285.9289 15.06395474 49715","ELEMENT_SET_NO":"999","ECCENTRICITY":"0.00016110","PERIOD":"95.592","MEAN_ELEMENT_THEORY":"SGP4","MEAN_MOTION_DOT":"0.00000967","MEAN_MOTION_DDOT":"0.0000000000000","LAUNCH_DATE":"2021-05-26","MEAN_MOTION":"15.06395474","MEAN_ANOMALY":"285.9289","PERIAPSIS":"546.112","CLASSIFICATION_TYPE":"U","DECAY_DATE":null,"COUNTRY_CODE":"US","SEMIMAJOR_AXIS":"6925.362","OBJECT_ID":"2021-044A","CENTER_NAME":"EARTH","TIME_SYSTEM":"UTC","APOAPSIS":"548.343","BSTAR":"0.00008378900000","EPOCH":"2022-04-19T10:29:12.941376","ARG_OF_PERICENTER":"74.1878","OBJECT_NAME":"STARLINK-2758","TLE_LINE1":"1 48638U 21044A   22109.43695534  .00000967  00000-0  83789-4 0  9994","OBJECT_TYPE":"PAYLOAD","RA_OF_ASC_NODE":"12.3912","REF_FRAME":"TEME"},{"MEAN_MOTION_DOT":"0.00001668","PERIOD":"95.592","MEAN_ELEMENT_THEORY":"SGP4","MEAN_MOTION_DDOT":"0.0000000000000","LAUNCH_DATE":"2021-05-26","GP_ID":"201639293","INCLINATION":"53.0567","REV_AT_EPOCH":"5065","TLE_LINE2":"2 48639  53.0567  11.2639 0001610  66.6120 293.5038 15.06402084 50655","ELEMENT_SET_NO":"999","NORAD_CAT_ID":"48639","ECCENTRICITY":"0.00016100","EPHEMERIS_TYPE":"0","FILE":"3408739","SITE":"AFETR","RCS_SIZE":"LARGE","BSTAR":"0.00013085000000","EPOCH":"2022-04-19T16:30:09.027072","OBJECT_ID":"2021-044B","CENTER_NAME":"EARTH","TIME_SYSTEM":"UTC","APOAPSIS":"548.322","OBJECT_NAME":"STARLINK-2739","TLE_LINE1":"1 48639U 21044B   22109.68760448  .00001668  00000-0  13085-3 0  9999","OBJECT_TYPE":"PAYLOAD","RA_OF_ASC_NODE":"11.2639","REF_FRAME":"TEME","ARG_OF_PERICENTER":"66.6120","PERIAPSIS":"546.092","MEAN_MOTION":"15.06402084","MEAN_ANOMALY":"293.5038","DECAY_DATE":null,"COUNTRY_CODE":"US","SEMIMAJOR_AXIS":"6925.342","CLASSIFICATION_TYPE":"U"},{"EPOCH":"2022-04-19T10:55:45.076512","BSTAR":"0.00011820000000","APOAPSIS":"548.273","TIME_SYSTEM":"UTC","CENTER_NAME":"EARTH","OBJECT_ID":"2021-044C","REF_FRAME":"TEME","TLE_LINE1":"1 48640U 21044C   22109.45538283  .00001480  00000-0  11820-3 0  9993","OBJECT_TYPE":"PAYLOAD","RA_OF_ASC_NODE":"12.3033","OBJECT_NAME":"STARLINK-2736","ARG_OF_PERICENTER":"69.6400","PERIAPSIS":"546.112","MEAN_ANOMALY":"290.4756","MEAN_MOTION":"15.06406962","SEMIMAJOR_AXIS":"6925.327","COUNTRY_CODE":"US","DECAY_DATE":null,"CLASSIFICATION_TYPE":"U","MEAN_MOTION_DOT":"0.00001480","MEAN_ELEMENT_THEORY":"SGP4","PERIOD":"95.592","LAUNCH_DATE":"2021-05-26","MEAN_MOTION_DDOT":"0.0000000000000","INCLINATION":"53.0551","GP_ID":"201626728","REV_AT_EPOCH":"4971","ECCENTRICITY":"0.00015600","NORAD_CAT_ID":"48640","TLE_LINE2":"2 48640  53.0551  12.3033 0001560  69.6400 290.4756 15.06406962 49715","ELEMENT_SET_NO":"999","RCS_SIZE":"LARGE","FILE":"3408368","SITE":"AFETR","EPHEMERIS_TYPE":"0"},{"OBJECT_NAME":"STARLINK-2754","TLE_LINE1":"1 48641U 21044D   22109.75995816  .00003550  00000-0  25706-3 0  9994","RA_OF_ASC_NODE":"15.9414","OBJECT_TYPE":"PAYLOAD","REF_FRAME":"TEME","ARG_OF_PERICENTER":"65.3808","BSTAR":"0.00025706000000","EPOCH":"2022-04-19T18:14:20.385024","OBJECT_ID":"2021-044D","CENTER_NAME":"EARTH","TIME_SYSTEM":"UTC","APOAPSIS":"548.415","DECAY_DATE":null,"COUNTRY_CODE":"US","SEMIMAJOR_AXIS":"6925.317","CLASSIFICATION_TYPE":"U","PERIAPSIS":"545.948","MEAN_MOTION":"15.06410332","MEAN_ANOMALY":"294.7367","MEAN_MOTION_DDOT":"0.0000000000000","LAUNCH_DATE":"2021-05-26","MEAN_MOTION_DOT":"0.00003550","PERIOD":"95.591","MEAN_ELEMENT_THEORY":"SGP4","TLE_LINE2":"2 48641  53.0551  15.9414 0001781  65.3808 294.7367 15.06410332 50597","NORAD_CAT_ID":"48641","ELEMENT_SET_NO":"999","ECCENTRICITY":"0.00017810","SITE":"AFETR","FILE":"3408403","EPHEMERIS_TYPE":"0","RCS_SIZE":"LARGE","INCLINATION":"53.0551","GP_ID":"201631666","REV_AT_EPOCH":"5059"},{"PERIOD":"95.592","MEAN_ELEMENT_THEORY":"SGP4","MEAN_MOTION_DOT":"0.00002351","LAUNCH_DATE":"2021-05-26","MEAN_MOTION_DDOT":"0.0000000000000","REV_AT_EPOCH":"4964","INCLINATION":"53.0570","GP_ID":"201628231","FILE":"3408368","EPHEMERIS_TYPE":"0","SITE":"AFETR","RCS_SIZE":"LARGE","NORAD_CAT_ID":"48642","TLE_LINE2":"2 48642  53.0570  17.3684 0001471  68.5046 291.6100 15.06402024 49643","ELEMENT_SET_NO":"999","ECCENTRICITY":"0.00014710","CENTER_NAME":"EARTH","OBJECT_ID":"2021-044E","APOAPSIS":"548.226","TIME_SYSTEM":"UTC","EPOCH":"2022-04-19T10:36:30.750912","BSTAR":"0.00017666000000","ARG_OF_PERICENTER":"68.5046","OBJECT_TYPE":"PAYLOAD","TLE_LINE1":"1 48642U 21044E   22109.44202258  .00002351  00000-0  17666-3 0  9996","RA_OF_ASC_NODE":"17.3684","OBJECT_NAME":"STARLINK-2646","REF_FRAME":"TEME","MEAN_MOTION":"15.06402024","MEAN_ANOMALY":"291.6100","PERIAPSIS":"546.189","CLASSIFICATION_TYPE":"U","DECAY_DATE":null,"SEMIMAJOR_AXIS":"6925.342","COUNTRY_CODE":"US"}];
